STARLINK-3290           
1 50828U 22001AB  26068.54543105 -.00000355  00000+0 -41869-5 0  9994
2 50828  53.2186 169.6628 0001284  77.7171 282.3965 15.08839033230238
PRSC-S1                 
1 65055U 25164A   26068.60758212  .00007316  00000+0  46631-3 0  9991
2 65055  41.1290 129.3637 0004466 348.3012  11.7698 15.08919510 33403
